start=new Date('2022-05-15T00:00:00.000Z').valueOf();
sats=[{"RA_OF_ASC_NODE":"343.2819","SEMIMAJOR_AXIS":"6925.340","ECCENTRICITY":"0.00016470","OBJECT_NAME":"STARLINK-2126","MEAN_ANOMALY":"289.8710","GP_ID":"203562156","OBJECT_ID":"2021-017E","APOAPSIS":"548.345","CENTER_NAME":"EARTH","COUNTRY_CODE":"US","MEAN_MOTION_DDOT":"0.0000000000000","ELEMENT_SET_NO":"999","SITE":"AFETR","CLASSIFICATION_TYPE":"U","BSTAR":"0.00003903700000","ARG_OF_PERICENTER":"70.2456","RCS_SIZE":"MEDIUM","PERIAPSIS":"546.064","EPOCH":"2022-05-14T20:29:30.607872","MEAN_MOTION":"15.06402827","REV_AT_EPOCH":"6762","LAUNCH_DATE":"2021-03-04","TLE_LINE2":"2 47726  53.0556 343.2819 0001647  70.2456 289.8710 15.06402827 67625","MEAN_ELEMENT_THEORY":"SGP4","TIME_SYSTEM":"UTC","TLE_LINE1":"1 47726U 21017E   22134.85382648  .00000300  00000-0  39037-4 0  9992","REF_FRAME":"TEME","NORAD_CAT_ID":"47726","EPHEMERIS_TYPE":"0","DECAY_DATE":null,"OBJECT_TYPE":"PAYLOAD","PERIOD":"95.592","MEAN_MOTION_DOT":"0.00000300","INCLINATION":"53.0556","FILE":"3445938"},{"NORAD_CAT_ID":"47727","EPHEMERIS_TYPE":"0","REF_FRAME":"TEME","FILE":"3445495","INCLINATION":"53.0550","DECAY_DATE":null,"MEAN_MOTION_DOT":"-0.00002761","OBJECT_TYPE":"PAYLOAD","PERIOD":"95.593","REV_AT_EPOCH":"6871","LAUNCH_DATE":"2021-03-04","EPOCH":"2022-05-14T09:45:55.740960","MEAN_MOTION":"15.06388587","TLE_LINE1":"1 47727U 21017F   22134.40689515 -.00002761  00000-0 -16656-3 0  9993","TLE_LINE2":"2 47727  53.0550 265.2956 0001626  61.7739 298.3414 15.06388587 68714","MEAN_ELEMENT_THEORY":"SGP4","TIME_SYSTEM":"UTC","SITE":"AFETR","CLASSIFICATION_TYPE":"U","BSTAR":"-0.00016656000000","APOAPSIS":"548.375","CENTER_NAME":"EARTH","COUNTRY_CODE":"US","MEAN_MOTION_DDOT":"0.0000000000000","ELEMENT_SET_NO":"999","RCS_SIZE":"LARGE","PERIAPSIS":"546.122","ARG_OF_PERICENTER":"61.7739","SEMIMAJOR_AXIS":"6925.384","ECCENTRICITY":"0.00016260","OBJECT_NAME":"STARLINK-2129","RA_OF_ASC_NODE":"265.2956","OBJECT_ID":"2021-017F","MEAN_ANOMALY":"298.3414","GP_ID":"203527887"},{"PERIAPSIS":"546.058","RCS_SIZE":"LARGE","ARG_OF_PERICENTER":"73.4556","CLASSIFICATION_TYPE":"U","SITE":"AFETR","BSTAR":"0.00007809800000","CENTER_NAME":"EARTH","APOAPSIS":"548.322","ELEMENT_SET_NO":"999","COUNTRY_CODE":"US","MEAN_MOTION_DDOT":"0.0000000000000","OBJECT_ID":"2021-017G","MEAN_ANOMALY":"286.6613","GP_ID":"203563158","ECCENTRICITY":"0.00016350","SEMIMAJOR_AXIS":"6925.325","OBJECT_NAME":"STARLINK-2131","RA_OF_ASC_NODE":"343.1108","INCLINATION":"53.0546","FILE":"3445938","DECAY_DATE":null,"OBJECT_TYPE":"PAYLOAD","PERIOD":"95.592","MEAN_MOTION_DOT":"0.00000882","NORAD_CAT_ID":"47728","EPHEMERIS_TYPE":"0","REF_FRAME":"TEME","TLE_LINE1":"1 47728U 21017G   22134.89436586  .00000882  00000-0  78098-4 0  9994","MEAN_ELEMENT_THEORY":"SGP4","TLE_LINE2":"2 47728  53.0546 343.1108 0001635  73.4556 286.6613 15.06407698 67694","TIME_SYSTEM":"UTC","LAUNCH_DATE":"2021-03-04","REV_AT_EPOCH":"6769","EPOCH":"2022-05-14T21:27:53.210304","MEAN_MOTION":"15.06407698"},{"RCS_SIZE":"LARGE","PERIAPSIS":"546.200","ARG_OF_PERICENTER":"79.5789","SITE":"AFETR","CLASSIFICATION_TYPE":"U","BSTAR":"0.00003298600000","APOAPSIS":"548.243","CENTER_NAME":"EARTH","COUNTRY_CODE":"US","MEAN_MOTION_DDOT":"0.0000000000000","ELEMENT_SET_NO":"999","OBJECT_ID":"2021-017H","MEAN_ANOMALY":"280.5366","GP_ID":"203527385","SEMIMAJOR_AXIS":"6925.357","ECCENTRICITY":"0.00014750","OBJECT_NAME":"STARLINK-2132","RA_OF_ASC_NODE":"290.1429","INCLINATION":"53.0579","FILE":"3445495","DECAY_DATE":null,"OBJECT_TYPE":"PAYLOAD","PERIOD":"95.592","MEAN_MOTION_DOT":"0.00000210","EPHEMERIS_TYPE":"0","NORAD_CAT_ID":"47729","REF_FRAME":"TEME","TLE_LINE1":"1 47729U 21017H   22134.43959635  .00000210  00000-0  32986-4 0  9991","MEAN_ELEMENT_THEORY":"SGP4","TLE_LINE2":"2 47729  53.0579 290.1429 0001475  79.5789 280.5366 15.06397360 68339","TIME_SYSTEM":"UTC","REV_AT_EPOCH":"6833","LAUNCH_DATE":"2021-03-04","EPOCH":"2022-05-14T10:33:01.124640","MEAN_MOTION":"15.06397360"},{"EPOCH":"2022-05-14T21:59:02.204736","MEAN_MOTION":"15.06414740","LAUNCH_DATE":"2021-03-04","REV_AT_EPOCH":"6743","MEAN_ELEMENT_THEORY":"SGP4","TLE_LINE2":"2 47730  53.0544 358.0130 0001666  57.7683 302.3468 15.06414740 67437","TIME_SYSTEM":"UTC","TLE_LINE1":"1 47730U 21017J   22134.91599774  .00008259  00000-0  57250-3 0  9991","REF_FRAME":"TEME","EPHEMERIS_TYPE":"0","NORAD_CAT_ID":"47730","DECAY_DATE":null,"PERIOD":"95.591","OBJECT_TYPE":"PAYLOAD","MEAN_MOTION_DOT":"0.00008259","INCLINATION":"53.0544","FILE":"3445938","RA_OF_ASC_NODE":"358.0130","ECCENTRICITY":"0.00016660","SEMIMAJOR_AXIS":"6925.303","OBJECT_NAME":"STARLINK-2140","MEAN_ANOMALY":"302.3468","GP_ID":"203562656","OBJECT_ID":"2021-017J","CENTER_NAME":"EARTH","APOAPSIS":"548.322","ELEMENT_SET_NO":"999","MEAN_MOTION_DDOT":"0.0000000000000","COUNTRY_CODE":"US","CLASSIFICATION_TYPE":"U","SITE":"AFETR","BSTAR":"0.00057250000000","ARG_OF_PERICENTER":"57.7683","PERIAPSIS":"546.015","RCS_SIZE":"LARGE"},{"PERIAPSIS":"546.116","RCS_SIZE":"LARGE","ARG_OF_PERICENTER":"58.3539","CLASSIFICATION_TYPE":"U","SITE":"AFETR","BSTAR":"0.00000295240000","CENTER_NAME":"EARTH","APOAPSIS":"548.328","ELEMENT_SET_NO":"999","COUNTRY_CODE":"US","MEAN_MOTION_DDOT":"0.0000000000000","OBJECT_ID":"2021-017K","MEAN_ANOMALY":"301.7606","GP_ID":"203562901","ECCENTRICITY":"0.00015970","SEMIMAJOR_AXIS":"6925.357","OBJECT_NAME":"STARLINK-2141","RA_OF_ASC_NODE":"353.2743","INCLINATION":"53.0555","FILE":"3445938","DECAY_DATE":null,"PERIOD":"95.592","OBJECT_TYPE":"PAYLOAD","MEAN_MOTION_DOT":"-0.00000238","NORAD_CAT_ID":"47731","EPHEMERIS_TYPE":"0","REF_FRAME":"TEME","TLE_LINE1":"1 47731U 21017K   22134.85659029 -.00000238  00000-0  29524-5 0  9990","TLE_LINE2":"2 47731  53.0555 353.2743 0001597  58.3539 301.7606 15.06397399 67502","MEAN_ELEMENT_THEORY":"SGP4","TIME_SYSTEM":"UTC","LAUNCH_DATE":"2021-03-04","REV_AT_EPOCH":"6750","EPOCH":"2022-05-14T20:33:29.401056","MEAN_MOTION":"15.06397399"},{"RCS_SIZE":"LARGE","PERIAPSIS":"546.067","ARG_OF_PERICENTER":"98.5403","SITE":"AFETR","CLASSIFICATION_TYPE":"U","BSTAR":"-0.00010394000000","APOAPSIS":"548.389","CENTER_NAME":"EARTH","MEAN_MOTION_DDOT":"0.0000000000000","COUNTRY_CODE":"US","ELEMENT_SET_NO":"999","OBJECT_ID":"2021-017L","MEAN_ANOMALY":"261.5776","GP_ID":"203563658","SEMIMAJOR_AXIS":"6925.363","ECCENTRICITY":"0.00016760","OBJECT_NAME":"STARLINK-2142","RA_OF_ASC_NODE":"269.6854","INCLINATION":"53.0570","FILE":"3445938","DECAY_DATE":null,"MEAN_MOTION_DOT":"-0.00001829","OBJECT_TYPE":"PAYLOAD","PERIOD":"95.592","EPHEMERIS_TYPE":"0","NORAD_CAT_ID":"47732","REF_FRAME":"TEME","TLE_LINE1":"1 47732U 21017L   22134.54096654 -.00001829  00000-0 -10394-3 0  9997","TLE_LINE2":"2 47732  53.0570 269.6854 0001676  98.5403 261.5776 15.06395281 68642","MEAN_ELEMENT_THEORY":"SGP4","TIME_SYSTEM":"UTC","REV_AT_EPOCH":"6864","LAUNCH_DATE":"2021-03-04","EPOCH":"2022-05-14T12:58:59.509056","MEAN_MOTION":"15.06395281"},{"TLE_LINE1":"1 47733U 21017M   22134.91095524 -.00000820  00000-0 -36109-4 0  9997","TIME_SYSTEM":"UTC","MEAN_ELEMENT_THEORY":"SGP4","TLE_LINE2":"2 47733  53.0560   3.0184 0001857  51.9912 308.1244 15.06405066 67412","REV_AT_EPOCH":"6741","LAUNCH_DATE":"2021-03-04","MEAN_MOTION":"15.06405066","EPOCH":"2022-05-14T21:51:46.532736","FILE":"3445938","INCLINATION":"53.0560","PERIOD":"95.592","OBJECT_TYPE":"PAYLOAD","MEAN_MOTION_DOT":"-0.00000820","DECAY_DATE":null,"NORAD_CAT_ID":"47733","EPHEMERIS_TYPE":"0","REF_FRAME":"TEME","OBJECT_ID":"2021-017M","GP_ID":"203563378","MEAN_ANOMALY":"308.1244","OBJECT_NAME":"STARLINK-2143","SEMIMAJOR_AXIS":"6925.333","ECCENTRICITY":"0.00018570","RA_OF_ASC_NODE":"3.0184","RCS_SIZE":"LARGE","PERIAPSIS":"545.912","ARG_OF_PERICENTER":"51.9912","BSTAR":"-0.00003610900000","SITE":"AFETR","CLASSIFICATION_TYPE":"U","COUNTRY_CODE":"US","MEAN_MOTION_DDOT":"0.0000000000000","ELEMENT_SET_NO":"999","APOAPSIS":"548.484","CENTER_NAME":"EARTH"},{"TLE_LINE1":"1 47734U 21017N   22134.86396260  .00000825  00000-0  74244-4 0  9998","TIME_SYSTEM":"UTC","MEAN_ELEMENT_THEORY":"SGP4","TLE_LINE2":"2 47734  53.0552 353.2406 0001626  66.8084 293.3076 15.06403442 66862","REV_AT_EPOCH":"6686","LAUNCH_DATE":"2021-03-04","MEAN_MOTION":"15.06403442","EPOCH":"2022-05-14T20:44:06.368640","INCLINATION":"53.0552","FILE":"3445717","MEAN_MOTION_DOT":"0.00000825","OBJECT_TYPE":"PAYLOAD","PERIOD":"95.592","DECAY_DATE":null,"NORAD_CAT_ID":"47734","EPHEMERIS_TYPE":"0","REF_FRAME":"TEME","OBJECT_ID":"2021-017N","GP_ID":"203535335","MEAN_ANOMALY":"293.3076","OBJECT_NAME":"STARLINK-2144","SEMIMAJOR_AXIS":"6925.338","ECCENTRICITY":"0.00016260","RA_OF_ASC_NODE":"353.2406","RCS_SIZE":"LARGE","PERIAPSIS":"546.077","ARG_OF_PERICENTER":"66.8084","BSTAR":"0.00007424400000","SITE":"AFETR","CLASSIFICATION_TYPE":"U","MEAN_MOTION_DDOT":"0.0000000000000","COUNTRY_CODE":"US","ELEMENT_SET_NO":"999","APOAPSIS":"548.329","CENTER_NAME":"EARTH"},{"RA_OF_ASC_NODE":"278.5289","ECCENTRICITY":"0.00015210","SEMIMAJOR_AXIS":"6925.348","OBJECT_NAME":"STARLINK-2146","MEAN_ANOMALY":"303.5580","GP_ID":"203535337","OBJECT_ID":"2021-017P","CENTER_NAME":"EARTH","APOAPSIS":"548.266","ELEMENT_SET_NO":"999","MEAN_MOTION_DDOT":"0.0000000000000","COUNTRY_CODE":"US","CLASSIFICATION_TYPE":"U","SITE":"AFETR","BSTAR":"-0.00009884200000","ARG_OF_PERICENTER":"56.5554","PERIAPSIS":"546.159","RCS_SIZE":"LARGE","EPOCH":"2022-05-14T19:09:12.062592","MEAN_MOTION":"15.06400342","LAUNCH_DATE":"2021-03-04","REV_AT_EPOCH":"6790","MEAN_ELEMENT_THEORY":"SGP4","TLE_LINE2":"2 47735  53.0567 278.5289 0001521  56.5554 303.5580 15.06400342 67905","TIME_SYSTEM":"UTC","TLE_LINE1":"1 47735U 21017P   22134.79805628 -.00001753  00000-0 -98842-4 0  9997","REF_FRAME":"TEME","NORAD_CAT_ID":"47735","EPHEMERIS_TYPE":"0","DECAY_DATE":null,"MEAN_MOTION_DOT":"-0.00001753","OBJECT_TYPE":"PAYLOAD","PERIOD":"95.592","INCLINATION":"53.0567","FILE":"3445717"}];
